CCSDS_OMM_VERS = 2.0
CREATION_DATE  = 
ORIGINATOR     = 

OBJECT_NAME    = ATLAS CENTAUR R/B
OBJECT_ID      = 1972-065B
CENTER_NAME    = EARTH
REF_FRAME      = TEME
TIME_SYSTEM    = UTC
MEAN_ELEMENT_THEORY = SGP/SGP4

EPOCH          = 2025-12-28T01:37:22.139904
MEAN_MOTION    = 14.77450221
ECCENTRICITY   = .0033352
INCLINATION    = 35.0025
RA_OF_ASC_NODE = 5.4088
ARG_OF_PERICENTER = 128.4998
MEAN_ANOMALY   = 231.8700

EPHEMERIS_TYPE = 0
CLASSIFICATION_TYPE = U
NORAD_CAT_ID   = 6155
ELEMENT_SET_NO = 999
REV_AT_EPOCH   = 83066
BSTAR          = .21787E-3
MEAN_MOTION_DOT = .1568E-4
MEAN_MOTION_DDOT = 0

CCSDS_OMM_VERS = 2.0
CREATION_DATE  = 
ORIGINATOR     = 

OBJECT_NAME    = SL-8 R/B
OBJECT_ID      = 1975-112B
CENTER_NAME    = EARTH
REF_FRAME      = TEME
TIME_SYSTEM    = UTC
MEAN_ELEMENT_THEORY = SGP/SGP4

EPOCH          = 2025-12-28T03:13:12.084096
MEAN_MOTION    = 14.38155769
ECCENTRICITY   = .0016673
INCLINATION    = 74.0599
RA_OF_ASC_NODE = 150.5417
ARG_OF_PERICENTER = 260.3545
MEAN_ANOMALY   = 99.5726

EPHEMERIS_TYPE = 0
CLASSIFICATION_TYPE = U
NORAD_CAT_ID   = 8459
ELEMENT_SET_NO = 999
REV_AT_EPOCH   = 62158
BSTAR          = .12528E-3
MEAN_MOTION_DOT = .354E-5
MEAN_MOTION_DDOT = 0

CCSDS_OMM_VERS = 2.0
CREATION_DATE  = 
ORIGINATOR     = 

OBJECT_NAME    = SL-3 R/B
OBJECT_ID      = 1977-057B
CENTER_NAME    = EARTH
REF_FRAME      = TEME
TIME_SYSTEM    = UTC
MEAN_ELEMENT_THEORY = SGP/SGP4

EPOCH          = 2025-12-28T02:59:12.999264
MEAN_MOTION    = 15.43327237
ECCENTRICITY   = .0007508
INCLINATION    = 97.5691
RA_OF_ASC_NODE = 166.0561
ARG_OF_PERICENTER = 172.6724
MEAN_ANOMALY   = 187.4634

EPHEMERIS_TYPE = 0
CLASSIFICATION_TYPE = U
NORAD_CAT_ID   = 10114
ELEMENT_SET_NO = 999
REV_AT_EPOCH   = 65728
BSTAR          = .33891E-3
MEAN_MOTION_DOT = .15034E-3
MEAN_MOTION_DDOT = 0

CCSDS_OMM_VERS = 2.0
CREATION_DATE  = 
ORIGINATOR     = 

OBJECT_NAME    = SEASAT 1
OBJECT_ID      = 1978-064A
CENTER_NAME    = EARTH
REF_FRAME      = TEME
TIME_SYSTEM    = UTC
MEAN_ELEMENT_THEORY = SGP/SGP4

EPOCH          = 2025-12-27T19:58:00.663168
MEAN_MOTION    = 14.46078013
ECCENTRICITY   = .00012773
INCLINATION    = 108.0141
RA_OF_ASC_NODE = 334.6989
ARG_OF_PERICENTER = 257.2991
MEAN_ANOMALY   = 102.8011

EPHEMERIS_TYPE = 0
CLASSIFICATION_TYPE = U
NORAD_CAT_ID   = 10967
ELEMENT_SET_NO = 999
REV_AT_EPOCH   = 49612
BSTAR          = .17670747E-3
MEAN_MOTION_DOT = .494E-5
MEAN_MOTION_DDOT = 0

CCSDS_OMM_VERS = 2.0
CREATION_DATE  = 
ORIGINATOR     = 

OBJECT_NAME    = SL-14 R/B
OBJECT_ID      = 1979-011B
CENTER_NAME    = EARTH
REF_FRAME      = TEME
TIME_SYSTEM    = UTC
MEAN_ELEMENT_THEORY = SGP/SGP4

EPOCH          = 2025-12-27T21:07:17.870016
MEAN_MOTION    = 14.91789622
ECCENTRICITY   = .0014789
INCLINATION    = 82.5237
RA_OF_ASC_NODE = 164.6846
ARG_OF_PERICENTER = 300.3128
MEAN_ANOMALY   = 59.6628

EPHEMERIS_TYPE = 0
CLASSIFICATION_TYPE = U
NORAD_CAT_ID   = 11267
ELEMENT_SET_NO = 999
REV_AT_EPOCH   = 51807
BSTAR          = .84942E-4
MEAN_MOTION_DOT = .883E-5
MEAN_MOTION_DDOT = 0

CCSDS_OMM_VERS = 2.0
CREATION_DATE  = 
ORIGINATOR     = 

OBJECT_NAME    = SL-8 R/B
OBJECT_ID      = 1979-089B
CENTER_NAME    = EARTH
REF_FRAME      = TEME
TIME_SYSTEM    = UTC
MEAN_ELEMENT_THEORY = SGP/SGP4

EPOCH          = 2025-12-28T02:18:14.442336
MEAN_MOTION    = 14.42293389
ECCENTRICITY   = .00148
INCLINATION    = 74.0671
RA_OF_ASC_NODE = 223.5580
ARG_OF_PERICENTER = 51.6408
MEAN_ANOMALY   = 308.6075

EPHEMERIS_TYPE = 0
CLASSIFICATION_TYPE = U
NORAD_CAT_ID   = 11574
ELEMENT_SET_NO = 999
REV_AT_EPOCH   = 42578
BSTAR          = .1003E-3
MEAN_MOTION_DOT = .305E-5
MEAN_MOTION_DDOT = 0

CCSDS_OMM_VERS = 2.0
CREATION_DATE  = 
ORIGINATOR     = 

OBJECT_NAME    = SL-14 R/B
OBJECT_ID      = 1980-005B
CENTER_NAME    = EARTH
REF_FRAME      = TEME
TIME_SYSTEM    = UTC
MEAN_ELEMENT_THEORY = SGP/SGP4

EPOCH          = 2025-12-27T12:14:57.931872
MEAN_MOTION    = 14.90809106
ECCENTRICITY   = .0016967
INCLINATION    = 82.5138
RA_OF_ASC_NODE = 15.6893
ARG_OF_PERICENTER = 48.3173
MEAN_ANOMALY   = 311.9495

EPHEMERIS_TYPE = 0
CLASSIFICATION_TYPE = U
NORAD_CAT_ID   = 11672
ELEMENT_SET_NO = 999
REV_AT_EPOCH   = 46573
BSTAR          = .68223931E-4
MEAN_MOTION_DOT = .698E-5
MEAN_MOTION_DDOT = 0

CCSDS_OMM_VERS = 2.0
CREATION_DATE  = 
ORIGINATOR     = 

OBJECT_NAME    = SL-8 R/B
OBJECT_ID      = 1981-003B
CENTER_NAME    = EARTH
REF_FRAME      = TEME
TIME_SYSTEM    = UTC
MEAN_ELEMENT_THEORY = SGP/SGP4

EPOCH          = 2025-12-27T11:25:17.618304
MEAN_MOTION    = 15.07500536
ECCENTRICITY   = .02772903
INCLINATION    = 82.9356
RA_OF_ASC_NODE = 356.6435
ARG_OF_PERICENTER = 69.6710
MEAN_ANOMALY   = 293.4080

EPHEMERIS_TYPE = 0
CLASSIFICATION_TYPE = U
NORAD_CAT_ID   = 12139
ELEMENT_SET_NO = 999
REV_AT_EPOCH   = 30378
BSTAR          = .56657827E-3
MEAN_MOTION_DOT = .21423E-3
MEAN_MOTION_DDOT = 0

CCSDS_OMM_VERS = 2.0
CREATION_DATE  = 
ORIGINATOR     = 

OBJECT_NAME    = SL-3 R/B
OBJECT_ID      = 1981-046B
CENTER_NAME    = EARTH
REF_FRAME      = TEME
TIME_SYSTEM    = UTC
MEAN_ELEMENT_THEORY = SGP/SGP4

EPOCH          = 2025-12-28T00:44:42.218016
MEAN_MOTION    = 15.39934127
ECCENTRICITY   = .0018043
INCLINATION    = 81.2326
RA_OF_ASC_NODE = 15.6400
ARG_OF_PERICENTER = 268.1738
MEAN_ANOMALY   = 91.7437

EPHEMERIS_TYPE = 0
CLASSIFICATION_TYPE = U
NORAD_CAT_ID   = 12465
ELEMENT_SET_NO = 999
REV_AT_EPOCH   = 42739
BSTAR          = .3357E-3
MEAN_MOTION_DOT = .13474E-3
MEAN_MOTION_DDOT = 0

CCSDS_OMM_VERS = 2.0
CREATION_DATE  = 
ORIGINATOR     = 

OBJECT_NAME    = SL-3 R/B
OBJECT_ID      = 1981-103B
CENTER_NAME    = EARTH
REF_FRAME      = TEME
TIME_SYSTEM    = UTC
MEAN_ELEMENT_THEORY = SGP/SGP4

EPOCH          = 2025-12-28T03:02:37.919328
MEAN_MOTION    = 15.20418345
ECCENTRICITY   = .0013045
INCLINATION    = 81.1594
RA_OF_ASC_NODE = 297.3317
ARG_OF_PERICENTER = 159.0087
MEAN_ANOMALY   = 201.1683

EPHEMERIS_TYPE = 0
CLASSIFICATION_TYPE = U
NORAD_CAT_ID   = 12904
ELEMENT_SET_NO = 999
REV_AT_EPOCH   = 96235
BSTAR          = .33853E-3
MEAN_MOTION_DOT = .7421E-4
MEAN_MOTION_DDOT = 0

CCSDS_OMM_VERS = 2.0
CREATION_DATE  = 
ORIGINATOR     = 

OBJECT_NAME    = SL-3 R/B
OBJECT_ID      = 1982-013B
CENTER_NAME    = EARTH
REF_FRAME      = TEME
TIME_SYSTEM    = UTC
MEAN_ELEMENT_THEORY = SGP/SGP4

EPOCH          = 2025-12-28T00:51:48.659040
MEAN_MOTION    = 15.21221239
ECCENTRICITY   = .0024063
INCLINATION    = 81.1738
RA_OF_ASC_NODE = 244.7044
ARG_OF_PERICENTER = 62.1095
MEAN_ANOMALY   = 298.2569

EPHEMERIS_TYPE = 0
CLASSIFICATION_TYPE = U
NORAD_CAT_ID   = 13068
ELEMENT_SET_NO = 999
REV_AT_EPOCH   = 39345
BSTAR          = .25716E-3
MEAN_MOTION_DOT = .5809E-4
MEAN_MOTION_DDOT = 0

CCSDS_OMM_VERS = 2.0
CREATION_DATE  = 
ORIGINATOR     = 

OBJECT_NAME    = SL-3 R/B
OBJECT_ID      = 1982-039B
CENTER_NAME    = EARTH
REF_FRAME      = TEME
TIME_SYSTEM    = UTC
MEAN_ELEMENT_THEORY = SGP/SGP4

EPOCH          = 2025-12-28T02:00:24.741216
MEAN_MOTION    = 15.09616382
ECCENTRICITY   = .0029438
INCLINATION    = 81.1704
RA_OF_ASC_NODE = 298.4437
ARG_OF_PERICENTER = 200.0927
MEAN_ANOMALY   = 159.9142

EPHEMERIS_TYPE = 0
CLASSIFICATION_TYPE = U
NORAD_CAT_ID   = 13154
ELEMENT_SET_NO = 999
REV_AT_EPOCH   = 37083
BSTAR          = .23478E-3
MEAN_MOTION_DOT = .3835E-4
MEAN_MOTION_DDOT = 0

