ATLAS CENTAUR R/B       
1 06155U 72065B   25362.06761736  .00001568  00000+0  21787-3 0  9998
2 06155  35.0025   5.4088 0033352 128.4998 231.8700 14.77450221830663
SL-8 R/B                
1 08459U 75112B   25362.13416764  .00000354  00000+0  12528-3 0  9994
2 08459  74.0599 150.5417 0016673 260.3545  99.5726 14.38155769621582
SL-3 R/B                
1 10114U 77057B   25362.12445601  .00015034  00000+0  33891-3 0  9993
2 10114  97.5691 166.0561 0007508 172.6724 187.4634 15.43327237657288
SEASAT 1                
1 10967U 78064A   25361.83195212  .00000494  00000+0  17671-3 0  9997
2 10967 108.0141 334.6989 0001277 257.2991 102.8011 14.46078013496123
SL-14 R/B               
1 11267U 79011B   25361.88006794  .00000883  00000+0  84942-4 0  9993
2 11267  82.5237 164.6846 0014789 300.3128  59.6628 14.91789622518073
SL-8 R/B                
1 11574U 79089B   25362.09600049  .00000305  00000+0  10030-3 0  9991
2 11574  74.0671 223.5580 0014800  51.6408 308.6075 14.42293389425787
SL-14 R/B               
1 11672U 80005B   25361.51039273  .00000698  00000+0  68224-4 0  9995
2 11672  82.5138  15.6893 0016967  48.3173 311.9495 14.90809106465738
SL-8 R/B                
1 12139U 81003B   25361.47589836  .00021423  00000+0  56658-3 0  9999
2 12139  82.9356 356.6435 0277290  69.6710 293.4080 15.07500536303788
SL-3 R/B                
1 12465U 81046B   25362.03104419  .00013474  00000+0  33570-3 0  9996
2 12465  81.2326  15.6400 0018043 268.1738  91.7437 15.39934127427399
SL-3 R/B                
1 12904U 81103B   25362.12682777  .00007421  00000+0  33853-3 0  9995
2 12904  81.1594 297.3317 0013045 159.0087 201.1683 15.20418345962350
SL-3 R/B                
1 13068U 82013B   25362.03597985  .00005809  00000+0  25716-3 0  9991
2 13068  81.1738 244.7044 0024063  62.1095 298.2569 15.21221239393454
SL-3 R/B                
1 13154U 82039B   25362.08361969  .00003835  00000+0  23478-3 0  9991
2 13154  81.1704 298.4437 0029438 200.0927 159.9142 15.09616382370833
